[{"OBJECT_NAME":"STARLINK-5506","OBJECT_ID":"2023-021Z","EPOCH":"2026-03-09T17:15:17.335296","MEAN_MOTION":14.98328506,"ECCENTRICITY":0.00031126,"INCLINATION":70.0012,"RA_OF_ASC_NODE":184.4684,"ARG_OF_PERICENTER":261.3518,"MEAN_ANOMALY":98.7288,"EPHEMERIS_TYPE":0,"CLASSIFICATION_TYPE":"U","NORAD_CAT_ID":55651,"ELEMENT_SET_NO":999,"REV_AT_EPOCH":16879,"BSTAR":-3.9269418e-5,"MEAN_MOTION_DOT":-5.62e-6,"MEAN_MOTION_DDOT":0},{"OBJECT_NAME":"PEGASUS DEB","OBJECT_ID":"1994-029AGJ","EPOCH":"2026-03-09T15:38:30.684192","MEAN_MOTION":14.32744369,"ECCENTRICITY":0.03222105,"INCLINATION":81.8776,"RA_OF_ASC_NODE":39.0531,"ARG_OF_PERICENTER":160.6697,"MEAN_ANOMALY":200.7053,"EPHEMERIS_TYPE":0,"CLASSIFICATION_TYPE":"U","NORAD_CAT_ID":40242,"ELEMENT_SET_NO":999,"REV_AT_EPOCH":58831,"BSTAR":0.00090056076,"MEAN_MOTION_DOT":4.406e-5,"MEAN_MOTION_DDOT":0}]
